#dP2024  6  3  0  0  0.00000000      96 __u+U IGS20 FIT  IAC
## 2317  86400.00000000   900.00000000 60464 0.0000000000000
+  130   C01C02C03C04C05C06C07C08C09C10C11C12C13C14C16C19C20
+        C21C22C23C24C25C26C27C28C29C30C32C33C34C35C36C37C38
+        C39C40C41C42C43C44C45C46C60E02E03E04E05E07E08E09E10
+        E11E12E13E14E15E18E19E21E24E25E26E27E30E31E33E34E36
+        G01G02G03G04G05G06G07G08G09G10G11G12G13G14G15G16G17
+        G18G19G20G21G22G23G24G25G26G27G28G29G30G31G32J02J03
+        J04J07R01R02R03R04R05R06R07R08R09R10R11R12R13R14R15
+        R16R17R18R19R20R21R22R23R24R25R26  0  0  0  0  0  0
++        17 17 17 17 16  9 10 10  9  0  9  9  9  9  9  7  7
++         7  7  8  7  8  7  7  7  7  7  7  8  7  7  7  7  8
++         8  8  8  8  8  7  7  7 17  4  5  4  5  4  4  4  4
++         4  4  4  5  4  4  4  4  5  4  4  4  4  5  4  5  4
++         5  4  4  4  4  4  4  4  4  4  4  4  4  4  4  4  4
++         4  4  4  4  4  4  3  4  4  4  4  4  4  4  4 10 10
++        10 17  8  6  6  6  6 15  6  6  6 15  6  6  8  6  6
++         6  6  6  8  8  6  6 15  6  8  8  0  0  0  0  0  0
%c M  cc GPS ccc cccc cccc cccc cccc ccccc ccccc ccccc ccccc
%c cc cc ccc ccc cccc cccc cccc cccc ccccc ccccc ccccc ccccc
%f  0.0000000  0.000000000  0.00000000000  0.000000000000000
%f  0.0000000  0.000000000  0.00000000000  0.000000000000000
%i    0    0    0    0      0      0      0      0         0
%i    0    0    0    0      0      0      0      0         0
/* INFORMATION & ANALYSIS CENTER (IAC)            RAPID DATA
/* S/V CLOCKS ARE ALIGNED TO GNSS TIME                      
/* G:C1WC2W R:C1PC2P E:C1XC5X C:C2IC6I J:C1CC2S             
/* PCV:IGS20_2290 OL/AL:FES2004  NONE     YN ORB:CoN CLK:CoN
*  2024 06 03  7 30  0.00000000
PC01 -34296.546210  24488.532941   1360.118730    900.019037
PC02   4369.722881  41911.039857    276.276383    742.490588
PC03 -14798.230297  39439.219552    993.920218    361.545559
PC04 -39613.744634  14374.489460   1318.786857   -560.162298
PC05  21803.828834  36086.280749   -173.245661   -722.651910
PC06 -16458.442736  25969.248697 -28880.289027    473.176275
PC07  -9120.924348  40684.247802  -5305.310287   -671.829901
PC08    958.117740  25695.131031  33462.825630   -175.837692
PC09  -8144.439381  25386.589931 -32324.530832    164.115244
PC10      0.000000      0.000000      0.000000 999999.999999
PC11 -21888.938303   1296.635007 -17192.191323    594.699547
PC12  -7071.760869 -13925.420855 -23094.634323   -253.025290
PC13   6724.552391  29316.896452  29822.014637    437.429239
PC14 -15775.252496  -7593.663736  21757.652977    913.054579
PC16 -19705.102551  25153.720432 -27386.693842   -563.734032
PC19  15212.712624  -3608.928285 -23093.465508   -913.383658
PC20  14175.600217  15804.208192 -18080.503430   -533.805472
PC21  -4353.098959 -27543.310238   1523.553837   -971.453358
PC22   7622.079039 -22171.127655 -15167.901186     16.390613
PC23 -13027.961795  11584.869551 -21781.091266   -783.721074
PC24 -23058.469646 -14490.639906   6033.172139    910.766226
PC25 -25501.530465  -1377.129624 -11235.412971    416.110346
PC26  -7698.844269 -18258.489055  19622.152107   -300.399995
PC27  -1620.657451  18998.720902  20354.211806    321.788311
PC28 -16823.418731  20363.929944   8999.597742    247.059978
PC29  23921.297158  -9626.504406  10662.827795    289.956557
PC30  15335.728658   7593.256679  22027.075859    -93.178487
PC32   4488.067420  27493.358432  -1389.123437   -638.052580
PC33 -15255.972283   3528.777428  23099.472150   -962.082024
PC34 -16630.895434  -6211.147155 -21551.704638    447.560865
PC35  16253.199776 -20940.678864  -8685.396205    347.366315
PC36  25471.661333   1931.505201  11270.374604     99.887625
PC37   7183.069979  18426.259502 -19682.997502   -949.806843
PC38  -6348.312274  23408.170284  34557.704998    159.008690
PC39 -22382.401869  25998.145633 -24596.832851     -8.568159
PC40 -15135.100822  38393.631450  -7864.746236    -73.281235
PC41  -8110.857744  21500.382921  15868.401236   -964.390563
PC42 -13750.153591 -17431.672370  16972.302031   -444.695834
PC43 -23901.662290   8779.586344 -11454.499601     73.988654
PC44    907.757827 -19214.696029 -20226.400565    492.350316
PC45  13241.405389 -11301.041865  21817.125338    -90.994697
PC46  23413.404912  14224.971219  -5413.766093   -153.609225
PC60   7321.117851  41497.145185   1407.974660     -1.021894
PE02  13905.504184  25938.403068  -3218.594967    132.491940
PE03   3972.269934  22013.274522 -19374.228696   -117.934442
PE04 -17025.959726  -3471.594075  23974.542356   -412.273294
PE05 -11125.253537  27201.060691  -3488.989863   4753.564655
PE07  19860.441124 -16222.604505 -14787.895386   -123.692176
PE08  16517.751425   4317.752841 -24176.332959   -280.921908
PE09 -19797.101225  16136.874784  14951.137520   -466.047385
PE10 -29560.743814   1505.176191     -6.512264   -629.784465
PE11 -26642.152675   7889.671595  10209.686003   2726.480985
PE12 -27818.492214  -4540.190569  -9080.305517  -1065.943736
PE13  26911.444779  -7571.394601  -9717.512623    -21.993696
PE14  11701.712439 -29654.200577  -4231.196467     58.641419
PE15  27570.284358   4826.142020   9617.313150   -106.650168
PE18 -10790.732928  21204.611431    954.275174    183.270496
PE19  -2168.646304 -23235.355022  18225.688908     51.213179
PE21    995.731918 -22699.494368  18973.895143   -597.956449
PE24 -16161.520241   5785.101268 -24127.459889   -797.966788
PE25  -1350.410975  22464.337054 -19222.499800      5.276330
PE26   9907.908573 -15582.061910 -23136.091128    472.913142
PE27  15957.146416  -6058.190915  24185.618631   -365.614956
PE30  21299.013344  14090.830572  14961.860836   -366.080492
PE31 -21319.180456 -13947.576936 -15066.202635    -25.313594
PE33 -11504.102968 -14347.528599 -23196.876436     12.394440
PE34  12086.578338  14174.371568  22994.991758   -114.867795
PE36 -10570.634077  15317.912346  23016.095446   -235.990664
PG01  15464.053613  -3636.212760  20960.650009    264.896703
PG02  -5208.290417 -14098.534891 -21441.922805   -424.667728
PG03 -12127.280443 -23203.400084  -5008.902084    395.362259
PG04  -2248.861071 -20715.197768  16410.327752    375.084017
PG05    584.126126  19973.963728  17271.667208   -174.988350
PG06 -25562.697035   5340.950371   5218.248660    239.282611
PG07 -22695.548767  -7162.733022  12778.989522   -104.586883
PG08   4717.574520 -24837.029320  -7502.157319    211.271558
PG09 -11991.101351 -10069.618495  21366.377002    220.361971
PG10  17734.067696   2752.551899 -19484.398520    -35.039957
PG11 -17046.639288  12055.145524  16409.087601   -677.167928
PG12   9027.317912  24131.497222  -6839.415153   -510.883759
PG13 -13521.679157  22675.296968  -1465.747138    655.260649
PG14 -19222.671482  -6411.478470 -17244.066673    416.328543
PG15  -1318.455789  25384.944274  -7846.444431    166.006615
PG16   4553.043801 -17919.138575  18563.459736   -274.600017
PG17 -17356.587424   4262.782362 -19283.502814    699.633680
PG18  23091.901445   6343.549914  11712.196427   -619.863393
PG19 -18716.514845  12188.837621 -14239.389887    491.085621
PG20  -7764.804479  13717.340301  21455.124767    374.269230
PG21    229.847203 -15147.253557 -21291.334982    117.790439
PG22 -15769.063506   1748.959146 -20834.924231    -22.320853
PG23  19795.565238  13589.858542 -11548.667934    241.163921
PG24   3255.733394  15671.010619 -21619.194418   -474.980595
PG25  16559.363832  20867.334934   1507.573894    496.783319
PG26  14433.650571  -7085.269439  21022.775628    143.063328
PG27  12656.417215 -22858.889284   2959.081011    -26.781705
PG28  25983.771131  -4909.181312   2468.562012   -272.008711
PG29   8902.573482  13487.417731  21000.688225   -595.855957
PG30 -26600.386058    508.907914   2478.746029   -380.331185
PG31  21292.897678 -10195.477812  12336.901583   -227.585859
PG32  17371.422493  -7133.713576 -18489.329162   -617.224199
PJ02 -20613.398990  23416.728332 -23660.589469     -0.259279
PJ03 -29900.790945  27121.263195  17504.890158      0.433948
PJ04 -27425.322797  28038.151913  21236.469970     50.325996
PJ07 -25384.212218  33663.870968    -27.078779     -0.004488
PR01    485.417389 -25506.517374    619.032374     87.294007
PR02  -6453.153724 -18315.023212  16552.556802    -23.153774
PR03 -10824.500747   -659.660794  23137.212993    101.356079
PR04  -9051.456670  16717.048829  17045.251157    239.378123
PR05  -2651.800741  25317.530950   1797.394858    132.499147
PR06   7731.837504  17103.617459 -17287.545420   -166.007151
PR07  10827.252224   -112.213099 -23051.331341     83.748706
PR08   8879.364795 -17012.781991 -16725.649171     -4.520572
PR09  19059.429900  15524.392853  -6626.076373    190.114024
PR10  22243.334740   9378.632943   8355.255278   -171.682496
PR11  13629.865165  -3280.716088  21318.337012     22.642316
PR12  -4500.505784 -14616.281496  20440.083086     40.871069
PR13 -17420.613033 -16237.973240   9129.592183    -48.000913
PR14 -21878.940921  -7961.170009 -10432.835340     26.544946
PR15 -12454.907922   4404.147039 -21799.834836     79.190044
PR16   4413.275167  14380.600570 -20576.070171     26.136538
PR17 -22062.352547   4855.032420 -11804.748935     92.482444
PR18 -21719.856612  12651.726681   4497.436970    145.178740
PR19 -12237.462276  13949.604285  17492.956100   -278.934544
PR20   9070.737408   7113.590451  22750.995818   -113.869214
PR21  22042.060332  -4592.196317  12007.829680   -106.118962
PR22  21506.428287 -12512.805371  -5570.910491    106.736838
PR23   8868.108323 -13859.554928 -19503.951888   -122.744082
PR24 -10118.538711  -6798.076001 -22393.850576    -58.358207
PR25  22434.666685  -4026.303419  11474.222529    -23.862062
PR26   9133.337522 -15996.081523 -17636.040492     -7.093627
EOF
